start=new Date('2022-09-24T00:00:00.000Z').valueOf();
sats=[{"NORAD_CAT_ID":"53776","ELEMENT_SET_NO":"999","MEAN_MOTION_DOT":"-0.00000397","LAUNCH_DATE":"2022-09-11","CLASSIFICATION_TYPE":"U","PERIOD":"91.530","CENTER_NAME":"EARTH","FILE":"3581681","EPOCH":"2022-09-23T20:00:01.999872","EPHEMERIS_TYPE":"0","APOAPSIS":"350.449","COUNTRY_CODE":"US","BSTAR":"0.00000158750000","ARG_OF_PERICENTER":"119.1622","MEAN_ANOMALY":"38.1669","DECAY_DATE":null,"MEAN_ELEMENT_THEORY":"SGP4","TLE_LINE2":"2 53776  53.2160 203.8874 0001288 119.1622  38.1669 15.73262322  1300","MEAN_MOTION":"15.73262322","MEAN_MOTION_DDOT":"0.0000000000000","TLE_LINE1":"1 53776U 22111D   22266.83335648 -.00000397  00000-0  15875-5 0  9994","OBJECT_TYPE":"PAYLOAD","ECCENTRICITY":"0.00012880","REV_AT_EPOCH":"130","SEMIMAJOR_AXIS":"6727.717","GP_ID":"213336652","SITE":"AFETR","RCS_SIZE":null,"INCLINATION":"53.2160","TIME_SYSTEM":"UTC","OBJECT_ID":"2022-111D","RA_OF_ASC_NODE":"203.8874","OBJECT_NAME":"STARLINK-4708","PERIAPSIS":"348.716","REF_FRAME":"TEME"},{"NORAD_CAT_ID":"53777","ELEMENT_SET_NO":"999","MEAN_MOTION_DOT":"0.00063375","CLASSIFICATION_TYPE":"U","PERIOD":"91.531","LAUNCH_DATE":"2022-09-11","CENTER_NAME":"EARTH","FILE":"3581681","EPOCH":"2022-09-23T20:00:01.999872","EPHEMERIS_TYPE":"0","APOAPSIS":"350.490","BSTAR":"0.00045198000000","COUNTRY_CODE":"US","ARG_OF_PERICENTER":"116.8271","MEAN_ANOMALY":"42.9073","DECAY_DATE":null,"MEAN_MOTION":"15.73230595","TLE_LINE2":"2 53777  53.2158 203.8829 0001214 116.8271  42.9073 15.73230595  1300","MEAN_ELEMENT_THEORY":"SGP4","MEAN_MOTION_DDOT":"0.0000000000000","TLE_LINE1":"1 53777U 22111E   22266.83335648  .00063375  00000-0  45198-3 0  9998","OBJECT_TYPE":"PAYLOAD","ECCENTRICITY":"0.00012140","REV_AT_EPOCH":"130","SITE":"AFETR","GP_ID":"213337396","SEMIMAJOR_AXIS":"6727.808","RCS_SIZE":null,"OBJECT_ID":"2022-111E","INCLINATION":"53.2158","TIME_SYSTEM":"UTC","RA_OF_ASC_NODE":"203.8829","PERIAPSIS":"348.856","OBJECT_NAME":"STARLINK-4664","REF_FRAME":"TEME"},{"APOAPSIS":"350.537","EPHEMERIS_TYPE":"0","BSTAR":"0.00051958000000","COUNTRY_CODE":"US","FILE":"3581681","CENTER_NAME":"EARTH","EPOCH":"2022-09-23T20:00:01.999872","PERIOD":"91.534","CLASSIFICATION_TYPE":"U","LAUNCH_DATE":"2022-09-11","ELEMENT_SET_NO":"999","NORAD_CAT_ID":"53778","MEAN_MOTION_DOT":"0.00072878","PERIAPSIS":"349.084","OBJECT_NAME":"STARLINK-4709","RA_OF_ASC_NODE":"203.8863","REF_FRAME":"TEME","SITE":"AFETR","GP_ID":"213337232","SEMIMAJOR_AXIS":"6727.946","OBJECT_ID":"2022-111F","INCLINATION":"53.2156","TIME_SYSTEM":"UTC","RCS_SIZE":null,"TLE_LINE1":"1 53778U 22111F   22266.83335648  .00072878  00000-0  51958-3 0  9998","OBJECT_TYPE":"PAYLOAD","ECCENTRICITY":"0.00010800","MEAN_MOTION_DDOT":"0.0000000000000","REV_AT_EPOCH":"130","ARG_OF_PERICENTER":"120.8631","MEAN_MOTION":"15.73182275","MEAN_ELEMENT_THEORY":"SGP4","TLE_LINE2":"2 53778  53.2156 203.8863 0001080 120.8631  37.0875 15.73182275  1309","MEAN_ANOMALY":"37.0875","DECAY_DATE":null},{"ARG_OF_PERICENTER":"115.6407","MEAN_MOTION":"15.73205865","TLE_LINE2":"2 53779  53.2162 203.8812 0001540 115.6407  44.6882 15.73205865  1308","MEAN_ELEMENT_THEORY":"SGP4","MEAN_ANOMALY":"44.6882","DECAY_DATE":null,"TLE_LINE1":"1 53779U 22111G   22266.83335648  .00060869  00000-0  43486-3 0  9993","ECCENTRICITY":"0.00015400","OBJECT_TYPE":"PAYLOAD","MEAN_MOTION_DDOT":"0.0000000000000","REV_AT_EPOCH":"130","SEMIMAJOR_AXIS":"6727.878","GP_ID":"213336489","SITE":"AFETR","OBJECT_ID":"2022-111G","INCLINATION":"53.2162","TIME_SYSTEM":"UTC","RCS_SIZE":null,"PERIAPSIS":"348.707","OBJECT_NAME":"STARLINK-4706","RA_OF_ASC_NODE":"203.8812","REF_FRAME":"TEME","ELEMENT_SET_NO":"999","NORAD_CAT_ID":"53779","MEAN_MOTION_DOT":"0.00060869","PERIOD":"91.533","CLASSIFICATION_TYPE":"U","LAUNCH_DATE":"2022-09-11","FILE":"3581681","CENTER_NAME":"EARTH","EPOCH":"2022-09-23T20:00:01.999872","APOAPSIS":"350.780","EPHEMERIS_TYPE":"0","BSTAR":"0.00043486000000","COUNTRY_CODE":"US"},{"EPHEMERIS_TYPE":"0","APOAPSIS":"350.429","COUNTRY_CODE":"US","BSTAR":"0.00030977000000","CENTER_NAME":"EARTH","FILE":"3581681","EPOCH":"2022-09-23T20:00:01.999872","LAUNCH_DATE":"2022-09-11","CLASSIFICATION_TYPE":"U","PERIOD":"91.531","NORAD_CAT_ID":"53780","ELEMENT_SET_NO":"999","MEAN_MOTION_DOT":"0.00043144","RA_OF_ASC_NODE":"203.8846","OBJECT_NAME":"STARLINK-4678","PERIAPSIS":"348.886","REF_FRAME":"TEME","GP_ID":"213337068","SITE":"AFETR","SEMIMAJOR_AXIS":"6727.792","RCS_SIZE":null,"INCLINATION":"53.2172","TIME_SYSTEM":"UTC","OBJECT_ID":"2022-111H","MEAN_MOTION_DDOT":"0.0000000000000","ECCENTRICITY":"0.00011470","TLE_LINE1":"1 53780U 22111H   22266.83335648  .00043144  00000-0  30977-3 0  9993","OBJECT_TYPE":"PAYLOAD","REV_AT_EPOCH":"130","ARG_OF_PERICENTER":"118.5746","MEAN_ANOMALY":"40.5594","DECAY_DATE":null,"MEAN_ELEMENT_THEORY":"SGP4","TLE_LINE2":"2 53780  53.2172 203.8846 0001147 118.5746  40.5594 15.73236050  1304","MEAN_MOTION":"15.73236050"},{"MEAN_MOTION_DDOT":"0.0000000000000","TLE_LINE1":"1 53781U 22111J   22266.83335648 -.00145795  00000-0 -10458-2 0  9992","OBJECT_TYPE":"PAYLOAD","ECCENTRICITY":"0.00014740","REV_AT_EPOCH":"130","ARG_OF_PERICENTER":"126.1223","DECAY_DATE":null,"MEAN_ANOMALY":"36.2782","MEAN_MOTION":"15.73347270","TLE_LINE2":"2 53781  53.2174 203.8778 0001474 126.1223  36.2782 15.73347270  1307","MEAN_ELEMENT_THEORY":"SGP4","RA_OF_ASC_NODE":"203.8778","PERIAPSIS":"348.349","OBJECT_NAME":"STARLINK-4462","REF_FRAME":"TEME","GP_ID":"213337636","SEMIMAJOR_AXIS":"6727.475","SITE":"AFETR","RCS_SIZE":null,"OBJECT_ID":"2022-111J","INCLINATION":"53.2174","TIME_SYSTEM":"UTC","CLASSIFICATION_TYPE":"U","PERIOD":"91.525","LAUNCH_DATE":"2022-09-11","NORAD_CAT_ID":"53781","ELEMENT_SET_NO":"999","MEAN_MOTION_DOT":"-0.00145795","EPHEMERIS_TYPE":"0","APOAPSIS":"350.332","BSTAR":"-0.00104580000000","COUNTRY_CODE":"US","CENTER_NAME":"EARTH","FILE":"3581681","EPOCH":"2022-09-23T20:00:01.999872"},{"REV_AT_EPOCH":"130","MEAN_MOTION_DDOT":"0.0000000000000","TLE_LINE1":"1 53782U 22111K   22266.83335648 -.00124106  00000-0 -88995-3 0  9998","ECCENTRICITY":"0.00013040","OBJECT_TYPE":"PAYLOAD","MEAN_ANOMALY":"37.1214","DECAY_DATE":null,"MEAN_MOTION":"15.73278078","MEAN_ELEMENT_THEORY":"SGP4","TLE_LINE2":"2 53782  53.2174 203.8802 0001304 123.9929  37.1214 15.73278078  1305","ARG_OF_PERICENTER":"123.9929","REF_FRAME":"TEME","RA_OF_ASC_NODE":"203.8802","PERIAPSIS":"348.660","OBJECT_NAME":"STARLINK-4679","RCS_SIZE":null,"OBJECT_ID":"2022-111K","INCLINATION":"53.2174","TIME_SYSTEM":"UTC","GP_ID":"213337472","SITE":"AFETR","SEMIMAJOR_AXIS":"6727.673","PERIOD":"91.529","CLASSIFICATION_TYPE":"U","LAUNCH_DATE":"2022-09-11","MEAN_MOTION_DOT":"-0.00124106","NORAD_CAT_ID":"53782","ELEMENT_SET_NO":"999","BSTAR":"-0.00088995000000","COUNTRY_CODE":"US","EPHEMERIS_TYPE":"0","APOAPSIS":"350.415","EPOCH":"2022-09-23T20:00:01.999872","CENTER_NAME":"EARTH","FILE":"3581681"},{"APOAPSIS":"350.662","EPHEMERIS_TYPE":"0","COUNTRY_CODE":"US","BSTAR":"0.00029540000000","FILE":"3581681","CENTER_NAME":"EARTH","EPOCH":"2022-09-23T20:00:01.999872","LAUNCH_DATE":"2022-09-11","CLASSIFICATION_TYPE":"U","PERIOD":"91.532","ELEMENT_SET_NO":"999","NORAD_CAT_ID":"53783","MEAN_MOTION_DOT":"0.00041081","OBJECT_NAME":"STARLINK-4536","PERIAPSIS":"348.728","RA_OF_ASC_NODE":"203.8781","REF_FRAME":"TEME","GP_ID":"213336904","SEMIMAJOR_AXIS":"6727.830","SITE":"AFETR","INCLINATION":"53.2173","TIME_SYSTEM":"UTC","OBJECT_ID":"2022-111L","RCS_SIZE":null,"OBJECT_TYPE":"PAYLOAD","TLE_LINE1":"1 53783U 22111L   22266.83335648  .00041081  00000-0  29540-3 0  9998","ECCENTRICITY":"0.00014380","MEAN_MOTION_DDOT":"0.0000000000000","REV_AT_EPOCH":"130","ARG_OF_PERICENTER":"109.0896","TLE_LINE2":"2 53783  53.2173 203.8781 0001438 109.0896  54.1628 15.73222870  1304","MEAN_ELEMENT_THEORY":"SGP4","MEAN_MOTION":"15.73222870","DECAY_DATE":null,"MEAN_ANOMALY":"54.1628"},{"EPOCH":"2022-09-23T20:00:01.999872","FILE":"3581681","CENTER_NAME":"EARTH","BSTAR":"-0.00127880000000","COUNTRY_CODE":"US","APOAPSIS":"350.624","EPHEMERIS_TYPE":"0","MEAN_MOTION_DOT":"-0.00177311","ELEMENT_SET_NO":"999","NORAD_CAT_ID":"53784","PERIOD":"91.526","CLASSIFICATION_TYPE":"U","LAUNCH_DATE":"2022-09-11","OBJECT_ID":"2022-111M","INCLINATION":"53.2170","TIME_SYSTEM":"UTC","RCS_SIZE":null,"GP_ID":"213336653","SITE":"AFETR","SEMIMAJOR_AXIS":"6727.543","REF_FRAME":"TEME","PERIAPSIS":"348.191","OBJECT_NAME":"STARLINK-4687","RA_OF_ASC_NODE":"203.8784","MEAN_MOTION":"15.73323630","MEAN_ELEMENT_THEORY":"SGP4","TLE_LINE2":"2 53784  53.2170 203.8784 0001808 113.0110  48.7886 15.73323630  1301","MEAN_ANOMALY":"48.7886","DECAY_DATE":null,"ARG_OF_PERICENTER":"113.0110","REV_AT_EPOCH":"130","TLE_LINE1":"1 53784U 22111M   22266.83335648 -.00177311  00000-0 -12788-2 0  9992","ECCENTRICITY":"0.00018080","OBJECT_TYPE":"PAYLOAD","MEAN_MOTION_DDOT":"0.0000000000000"},{"ARG_OF_PERICENTER":"301.2330","DECAY_DATE":null,"MEAN_ANOMALY":"131.5143","MEAN_ELEMENT_THEORY":"SGP4","TLE_LINE2":"2 53785  53.2042 203.3170 0006219 301.2330 131.5143 15.82566820  1307","MEAN_MOTION":"15.82566820","MEAN_MOTION_DDOT":"0.0000000000000","TLE_LINE1":"1 53785U 22111N   22266.83335648  .00110557  00000-0  51395-3 0  9998","OBJECT_TYPE":"PAYLOAD","ECCENTRICITY":"0.00062190","REV_AT_EPOCH":"130","GP_ID":"213337397","SEMIMAJOR_AXIS":"6701.322","SITE":"AFETR","RCS_SIZE":null,"INCLINATION":"53.2042","TIME_SYSTEM":"UTC","OBJECT_ID":"2022-111N","RA_OF_ASC_NODE":"203.3170","OBJECT_NAME":"STARLINK-4638","PERIAPSIS":"319.019","REF_FRAME":"TEME","NORAD_CAT_ID":"53785","ELEMENT_SET_NO":"999","MEAN_MOTION_DOT":"0.00110557","LAUNCH_DATE":"2022-09-11","CLASSIFICATION_TYPE":"U","PERIOD":"90.991","CENTER_NAME":"EARTH","FILE":"3581681","EPOCH":"2022-09-23T20:00:01.999872","EPHEMERIS_TYPE":"0","APOAPSIS":"327.354","COUNTRY_CODE":"US","BSTAR":"0.00051395000000"}];
